{
    "links": {
        "self": "http://www.neowsapp.com/rest/v1/neo/3558194?api_key=iIulBulltgU6a56xZRHN4H3l9WmuAYTsLGpBGhQ2"
    },
    "id": "3558194",
    "neo_reference_id": "3558194",
    "name": "(2011 DV10)",
    "designation": "2011 DV10",
    "nasa_jpl_url": "http://ssd.jpl.nasa.gov/sbdb.cgi?sstr=3558194",
    "absolute_magnitude_h": 24.8,
    "estimated_diameter": {
        "kilometers": {
            "estimated_diameter_min": 0.0291443905,
            "estimated_diameter_max": 0.0651688382
        },
        "meters": {
            "estimated_diameter_min": 29.1443904535,
            "estimated_diameter_max": 65.1688382168
        },
        "miles": {
            "estimated_diameter_min": 0.018109479,
            "estimated_diameter_max": 0.0404940262
        },
        "feet": {
            "estimated_diameter_min": 95.6180819754,
            "estimated_diameter_max": 213.8085311752
        }
    },
    "is_potentially_hazardous_asteroid": false,
    "close_approach_data": [
        {
            "close_approach_date": "2011-02-07",
            "close_approach_date_full": "2011-Feb-07 15:12",
            "epoch_date_close_approach": 1297091520000,
            "relative_velocity": {
                "kilometers_per_second": "13.8756039111",
                "kilometers_per_hour": "49952.1740799103",
                "miles_per_hour": "31038.3383887087"
            },
            "miss_distance": {
                "astronomical": "0.0571345826",
                "lunar": "22.2253526314",
                "kilometers": "8547211.860299062",
                "miles": "5310991.1760565756"
            },
            "orbiting_body": "Earth"
        }
    ],
    "orbital_data": {
        "orbit_id": "9",
        "orbit_determination_date": "2017-04-06 08:54:20",
        "first_observation_date": "2011-02-26",
        "last_observation_date": "2011-03-10",
        "data_arc_in_days": 12,
        "observations_used": 27,
        "orbit_uncertainty": "9",
        "minimum_orbit_intersection": ".0569849",
        "jupiter_tisserand_invariant": "2.890",
        "epoch_osculation": "2455621.5",
        "eccentricity": ".6886267884529754",
        "semi_major_axis": "2.846403266533838",
        "inclination": "8.103759553138932",
        "ascending_node_longitude": "159.8959145207596",
        "orbital_period": "1754.054449222432",
        "perihelion_distance": ".8862937264585826",
        "perihelion_argument": "292.7340486312673",
        "aphelion_distance": "4.806512806609094",
        "perihelion_time": "2455567.932088157516",
        "mean_anomaly": "10.9942130199225",
        "mean_motion": ".205238782729685",
        "equinox": "J2000",
        "orbit_class": {
            "orbit_class_type": "APO",
            "orbit_class_description": "Near-Earth asteroid orbits which cross the Earth’s orbit similar to that of 1862 Apollo",
            "orbit_class_range": "a (semi-major axis) > 1.0 AU; q (perihelion) < 1.017 AU"
        }
    },
    "is_sentry_object": false
}